NARSSCUBE-2             
1 44415U 19022E   22296.97425085  .00013163  00000+0  36706-3 0  9991
2 44415  51.6398 214.5892 0011246 156.9791 203.1698 15.37028970179867
DUCHIFAT-3              
1 44854U 19089C   22297.08583506  .00005211  00000+0  39535-3 0  9995
2 44854  36.9666  57.3066 0007187 193.6291 335.4867 15.02026197157275
OPS-SAT                 
1 44878U 19092F   22297.00612159  .00014185  00000+0  61457-3 0  9992
2 44878  97.4791 120.0602 0010829 250.8765 109.1300 15.22449227157739
FLORIPASAT-1            
1 44885U 19093G   22297.18649926  .00002413  00000+0  29830-3 0  9992
2 44885  97.8890  16.1529 0015476 129.9664 230.2901 14.83635817153930
HUSKYSAT-1 (HO-107)     
1 45119U 19071J   22296.83713764  .00037964  00000+0  63586-3 0  9997
2 45119  51.6349 145.9352 0008537 266.2398  93.7615 15.51440577153243
BY70-2                  
1 45857U 20042B   22297.17581497  .00008636  00000+0  11054-2 0  9996
2 45857  97.9478  12.8660 0010557  65.7098 294.5227 14.81535563124505
SALSAT                  
1 46495U 20068K   22296.83568303  .00002978  00000+0  21312-3 0  9998
2 46495  97.7413 238.2799 0015588 195.5820 164.4928 15.05129474113498
NETSAT-4                
1 46504U 20068U   22296.80298006  .00003005  00000+0  22075-3 0  9995
2 46504  97.7349 236.4537 0009922 252.2792 107.7352 15.04191756113336
NETSAT-3                
1 46505U 20068V   22296.82217215  .00003694  00000+0  27055-3 0  9998
2 46505  97.7352 236.3736 0008712 257.3699 102.6553 15.04158384113347
NETSAT-1                
1 46506U 20068W   22296.84357822  .00004798  00000+0  35060-3 0  9991
2 46506  97.7320 236.3078 0007463 269.4485  90.5885 15.04106638113349
NETSAT-2                
1 46507U 20068X   22296.78804513  .00004303  00000+0  31511-3 0  9998
2 46507  97.7323 236.2447 0007206 284.6363  75.4067 15.04083484113281
BY70-3                  
1 46839U 20079N   22297.15529821  .00038652  00000+0  72150-3 0  9994
2 46839  97.1850   7.9584 0004769 211.3849 203.6800 15.48671056110115
UVSQ-SAT                
1 47438U 21006AB  22296.69637848  .00009135  00000+0  46125-3 0  9995
2 47438  97.4232 353.0862 0011524 182.0475 178.0713 15.17260899 96710
SOMP2B                  
1 47445U 21006AJ  22296.92335492  .00008431  00000+0  43132-3 0  9992
2 47445  97.4201 352.8587 0011117 185.5935 174.5176 15.16826911 96730
DIY-1 (ARDUIQUBE)       
1 47963U 21022AH  22296.65537379  .00025171  00000+0  12342-2 0  9991
2 47963  97.5185 196.7612 0018154  55.8071 304.4880 15.17963670 86368
